IRIDIUM 163             
1 43575U 18061G   26155.16586057  .00000098  00000+0  27859-4 0  9998
2 43575  86.3968  62.1661 0002356  84.7398 275.4066 14.34218549411516
IRIDIUM 156             
1 43576U 18061H   26155.21026109  .00000077  00000+0  20459-4 0  9998
2 43576  86.3965  62.1552 0002191  79.2191 280.9251 14.34217179411515
IRIDIUM 164             
1 43577U 18061J   26155.67960977  .00000223  00000+0  72676-4 0  9990
2 43577  86.3967  61.9991 0002083  89.8719 270.2715 14.34216775411625
IRIDIUM 159             
1 43578U 18061K   26155.22928826  .00000000  00000+0 -70674-5 0  9990
2 43578  86.3964  62.1242 0002197  85.5340 274.6106 14.34217324411526
IRIDIUM 180             
1 43922U 19002A   26155.64739564  .00000016  00000+0 -14519-5 0  9997
2 43922  86.3974 358.8409 0002235  89.2813 270.8639 14.34217604387194
IRIDIUM 176             
1 43923U 19002B   26155.10918545  .00000926  00000+0  14304-3 0  9996
2 43923  86.6094 359.0116 0002067  84.8735 275.2718 14.72250537397323
IRIDIUM 168             
1 43924U 19002C   26155.64105294 -.00000021  00000+0 -14614-4 0  9998
2 43924  86.3973 358.9205 0002058  89.6669 270.4763 14.34217211387172
IRIDIUM 173             
1 43925U 19002D   26155.07021762  .00000262  00000+0  86519-4 0  9991
2 43925  86.3973 359.0486 0002255  87.4462 272.6992 14.34219202387071
IRIDIUM 169             
1 43926U 19002E   26155.66264822  .00000459  00000+0  14351-3 0  9995
2 43926  86.4235  30.4295 0002305  70.1677 289.9769 14.38608996388424
IRIDIUM 172             
1 43927U 19002F   26155.06387709  .00000024  00000+0  15379-5 0  9991
2 43927  86.3974 359.0592 0002271  89.7635 270.3821 14.34217486387086
IRIDIUM 175             
1 43928U 19002G   26154.34351604  .00000367  00000+0  10234-3 0  9990
2 43928  86.4502 296.3094 0000989 262.2416  97.8672 14.43604578396981
IRIDIUM 171             
1 43929U 19002H   26155.11461720  .00000014  00000+0 -20017-5 0  9990
2 43929  86.3983 359.3425 0002027  85.3395 274.8032 14.34217557387082
IRIDIUM 170             
1 43930U 19002J   26155.11537059  .00000251  00000+0  35948-4 0  9991
2 43930  86.6099 359.0117 0002367  87.6012 272.5476 14.72248600397339
IRIDIUM 167             
1 43931U 19002K   26155.10827406  .00000025  00000+0  17424-5 0  9998
2 43931  86.3975 359.0626 0001903  83.6021 276.5391 14.34217664387081
IRIDIUM 181             
1 56726U 23068S   26154.86454174  .00000229  00000+0  61933-4 0  9990
2 56726  86.4505  62.3588 0002275  88.3834 271.7627 14.43306685160513
IRIDIUM 177             
1 56727U 23068T   26155.00501736  .00000454  00000+0  56244-4 0  9994
2 56727  86.1957 335.0540 0002446  86.4663 273.6838 14.80229750164415
IRIDIUM 174             
1 56728U 23068U   26155.10300935 -.00000014  00000+0 -62114-5 0  9992
2 56728  86.6101 359.1625 0002485  89.3509 270.7993 14.72251410164090
IRIDIUM 178             
1 56729U 23068V   26155.06175075  .00001233  00000+0  15885-3 0  9996
2 56729  86.6548  30.8455 0002496  88.8573 271.2935 14.80243860164425
IRIDIUM 179             
1 56730U 23068W   26155.12399692  .00001228  00000+0  15820-3 0  9991
2 56730  86.6788  39.7600 0002344  85.6513 274.4977 14.80240814164432
